NORAD_CAT_ID,OBJECT_NAME,OBJECT_TYPE,EPOCH,MEAN_MOTION,ECCENTRICITY,INCLINATION,RA_OF_ASC_NODE,ARG_OF_PERICENTER,MEAN_ANOMALY,BSTAR,MEAN_MOTION_DOT,MEAN_MOTION_DDOT,TLE_LINE0,TLE_LINE1,TLE_LINE2,SEMIMAJOR_AXIS,PERIOD,APOGEE,PERIGEE,DECAYED
49770.0,STARLINK-3191,PAYLOAD,2023-09-27 00:44:59,15.08828238,0.0001392,53.216,195.4451,93.7974,266.3177,-0.00020971,-3.623e-05,0.0,0 STARLINK-3191,1 49770U 21115AY  23270.03124281 -.00003623  00000-0 -20971-3 0  9990,2 49770  53.2160 195.4451 0001392  93.7974 266.3177 15.08828238101727,6917.916,95.438,540.744,538.818,0.0
49770.0,STARLINK-3191,PAYLOAD,2023-09-27 11:52:41,15.08827062,0.0001414,53.2163,193.3658,88.2497,271.8657,-0.00016196,-2.864e-05,0.0,0 STARLINK-3191,1 49770U 21115AY  23270.49492663 -.00002864  00000-0 -16196-3 0  9992,2 49770  53.2163 193.3658 0001414  88.2497 271.8657 15.08827062101807,6917.92,95.438,540.763,538.807,0.0
49770.0,STARLINK-3191,PAYLOAD,2023-09-28 02:11:10,15.08832054,0.000165,53.2172,190.6939,94.5415,265.5765,-0.00013038,-2.362e-05,0.0,0 STARLINK-3191,1 49770U 21115AY  23271.09109206 -.00002362  00000-0 -13038-3 0  9992,2 49770  53.2172 190.6939 0001650  94.5415 265.5765 15.08832054101886,6917.905,95.438,540.911,538.628,0.0
49770.0,STARLINK-3191,PAYLOAD,2023-09-28 05:21:56,15.08833508,0.0001818,53.218,190.0911,83.1949,276.925,-0.00013455,-2.428e-05,0.0,0 STARLINK-3191,1 49770U 21115AY  23271.22357250 -.00002428  00000-0 -13455-3 0  9997,2 49770  53.2180 190.0911 0001818  83.1949 276.9250 15.08833508101915,6917.9,95.438,541.023,538.508,0.0
49770.0,STARLINK-3191,PAYLOAD,2023-09-30 03:28:06,15.08870196,0.0001419,53.2162,181.4705,91.7401,268.3753,0.00057755,8.923e-05,0.0,0 STARLINK-3191,1 49770U 21115AY  23273.14451913  .00008923  00000-0  57755-3 0  9996,2 49770  53.2162 181.4705 0001419  91.7401 268.3753 15.08870196102193,6917.788,95.436,540.635,538.671,0.0
49770.0,STARLINK-3191,PAYLOAD,2023-09-30 05:03:29,15.08873068,0.0001421,53.216,181.1731,91.797,268.3184,0.00066962,0.00010395,0.0,0 STARLINK-3191,1 49770U 21115AY  23273.21075782  .00010395  00000-0  66962-3 0  9996,2 49770  53.2160 181.1731 0001421  91.7970 268.3184 15.08873068102213,6917.779,95.435,540.627,538.661,0.0
49770.0,STARLINK-3191,PAYLOAD,2023-09-30 11:25:02,15.08830826,9.66e-05,53.2162,179.984,81.2649,278.8452,-0.00056617,-9.285e-05,0.0,0 STARLINK-3191,1 49770U 21115AY  23273.47572594 -.00009285  00000-0 -56617-3 0  9991,2 49770  53.2162 179.9840 0000966  81.2649 278.8452 15.08830826102243,6917.908,95.438,540.442,539.105,0.0
49770.0,STARLINK-3191,PAYLOAD,2023-10-01 03:18:54,15.08849181,0.0001445,53.2158,177.0115,73.018,287.0971,0.0025383,0.00040351,0.0,0 STARLINK-3191,1 49770U 21115AY  23274.13813103  .00040351  00000-0  25383-2 0  9991,2 49770  53.2158 177.0115 0001445  73.0180 287.0971 15.08849181102347,6917.852,95.437,540.717,538.718,0.0
49770.0,STARLINK-3191,PAYLOAD,2023-10-01 12:51:13,15.08848212,0.0001421,53.2158,175.2267,85.4734,274.642,0.0013905,0.00021916,0.0,0 STARLINK-3191,1 49770U 21115AY  23274.53557156  .00021916  00000-0  13905-2 0  9991,2 49770  53.2158 175.2267 0001421  85.4734 274.6420 15.08848212102403,6917.855,95.437,540.703,538.737,0.0
49770.0,STARLINK-3191,PAYLOAD,2023-10-01 20:48:08,15.08858701,0.0001464,53.2158,173.7401,74.8382,285.2771,0.0013205,0.00020801,0.0,0 STARLINK-3191,1 49770U 21115AY  23274.86676954  .00020801  00000-0  13205-2 0  9990,2 49770  53.2158 173.7401 0001464  74.8382 285.2771 15.08858701102461,6917.823,95.436,540.701,538.675,0.0
49770.0,STARLINK-3191,PAYLOAD,2023-10-02 20:38:55,15.08849525,0.000128,53.2157,169.2798,104.4995,255.6139,0.0015101,0.00023833,0.0,0 STARLINK-3191,1 49770U 21115AY  23275.86036754  .00023833  00000-0  15101-2 0  9994,2 49770  53.2157 169.2798 0001280 104.4995 255.6139 15.08849525102604,6917.851,95.437,540.602,538.831,0.0
49770.0,STARLINK-3191,PAYLOAD,2023-10-03 09:22:01,15.08842525,0.0001559,53.2155,166.9009,87.3146,272.8024,0.0010153,0.00015909,0.0,0 STARLINK-3191,1 49770U 21115AY  23276.39029045  .00015909  00000-0  10153-2 0  9995,2 49770  53.2155 166.9009 0001559  87.3146 272.8024 15.08842525102682,6917.873,95.437,540.816,538.659,0.0
49770.0,STARLINK-3191,PAYLOAD,2023-10-03 20:29:43,15.08839958,0.0001142,53.2154,164.8195,96.8275,263.2847,0.0014508,0.00022877,0.0,0 STARLINK-3191,1 49770U 21115AY  23276.85397357  .00022877  00000-0  14508-2 0  9990,2 49770  53.2154 164.8195 0001142  96.8275 263.2847 15.08839958102751,6917.881,95.438,540.536,538.955,0.0
49770.0,STARLINK-3191,PAYLOAD,2023-10-03 22:05:06,15.08840109,0.0001172,53.2154,164.5218,100.9233,259.1891,0.0015279,0.00024112,0.0,0 STARLINK-3191,1 49770U 21115AY  23276.92021302  .00024112  00000-0  15279-2 0  9992,2 49770  53.2154 164.5218 0001172 100.9233 259.1891 15.08840109102773,6917.88,95.438,540.556,538.934,0.0
49770.0,STARLINK-3191,PAYLOAD,2023-10-04 09:12:48,15.08852356,0.0001146,53.2153,162.44,80.3789,279.7333,0.0012288,0.00019329,0.0,0 STARLINK-3191,1 49770U 21115AY  23277.38389293  .00019329  00000-0  12288-2 0  9990,2 49770  53.2153 162.4400 0001146  80.3789 279.7333 15.08852356102833,6917.843,95.437,540.5,538.915,0.0
49770.0,STARLINK-3191,PAYLOAD,2023-10-04 21:55:53,15.08856862,0.0001243,53.2152,160.0627,87.6313,272.4821,0.00080532,0.00012558,0.0,0 STARLINK-3191,1 49770U 21115AY  23277.91380970  .00012558  00000-0  80532-3 0  9997,2 49770  53.2152 160.0627 0001243  87.6313 272.4821 15.08856862102926,6917.829,95.436,540.554,538.834,0.0
49770.0,STARLINK-3191,PAYLOAD,2023-10-05 01:06:39,15.08867044,0.0001246,53.2155,159.4675,88.7486,271.3649,0.0009639,0.00015097,0.0,0 STARLINK-3191,1 49770U 21115AY  23278.04628612  .00015097  00000-0  96390-3 0  9990,2 49770  53.2155 159.4675 0001246  88.7486 271.3649 15.08867044102931,6917.798,95.436,540.525,538.801,0.0
49770.0,STARLINK-3191,PAYLOAD,2023-10-05 09:03:34,15.08847589,0.000101,53.2156,157.9784,100.5281,259.5825,0.00035464,5.362e-05,0.0,0 STARLINK-3191,1 49770U 21115AY  23278.37748772  .00005362  00000-0  35464-3 0  9995,2 49770  53.2156 157.9784 0001010 100.5281 259.5825 15.08847589102982,6917.857,95.437,540.421,539.023,0.0
49770.0,STARLINK-3191,PAYLOAD,2023-10-05 20:11:17,15.0883732,0.0001605,53.2158,155.9003,96.3732,263.7443,0.00011292,1.509e-05,0.0,0 STARLINK-3191,1 49770U 21115AY  23278.84117324  .00001509  00000-0  11292-3 0  9992,2 49770  53.2158 155.9003 0001605  96.3732 263.7443 15.08837320103053,6917.889,95.438,540.864,538.643,0.0
49770.0,STARLINK-3191,PAYLOAD,2023-10-05 21:46:40,15.08836845,0.00016,53.2157,155.6032,95.2692,264.8483,0.00014413,2.006e-05,0.0,0 STARLINK-3191,1 49770U 21115AY  23278.90741378  .00002006  00000-0  14413-3 0  9992,2 49770  53.2157 155.6032 0001600  95.2692 264.8483 15.08836845103078,6917.89,95.438,540.862,538.648,0.0
49770.0,STARLINK-3191,PAYLOAD,2023-10-06 08:54:22,15.08839997,0.0001389,53.2135,153.5189,82.2546,277.8603,0.00059509,9.196e-05,0.0,0 STARLINK-3191,1 49770U 21115AY  23279.37109581  .00009196  00000-0  59509-3 0  9990,2 49770  53.2135 153.5189 0001389  82.2546 277.8603 15.08839997103149,6917.88,95.438,540.706,538.785,0.0
49770.0,STARLINK-3191,PAYLOAD,2023-10-06 21:37:28,15.08834046,0.0001684,53.2152,151.1409,86.5947,273.5238,0.00028492,4.249e-05,0.0,0 STARLINK-3191,1 49770U 21115AY  23279.90102093  .00004249  00000-0  28492-3 0  9991,2 49770  53.2152 151.1409 0001684  86.5947 273.5238 15.08834046103212,6917.899,95.438,540.929,538.599,0.0
49770.0,STARLINK-3191,PAYLOAD,2023-10-07 00:48:14,15.08843765,0.0001581,53.2154,150.547,83.3959,276.7213,0.00036048,5.454e-05,0.0,0 STARLINK-3191,1 49770U 21115AY  23280.03349825  .00005454  00000-0  36048-3 0  9998,2 49770  53.2154 150.5470 0001581  83.3959 276.7213 15.08843765103237,6917.869,95.437,540.828,538.64,0.0
49770.0,STARLINK-3191,PAYLOAD,2023-10-07 21:28:15,15.08847319,0.0001544,53.2151,146.6818,81.6069,278.5098,0.00036831,5.58e-05,0.0,0 STARLINK-3191,1 49770U 21115AY  23280.89461858  .00005580  00000-0  36831-3 0  9993,2 49770  53.2151 146.6818 0001544  81.6069 278.5098 15.08847319103362,6917.858,95.437,540.791,538.655,0.0
49770.0,STARLINK-3191,PAYLOAD,2023-10-08 08:35:56,15.08847532,0.0001581,53.2146,144.6008,72.8012,287.3154,0.00029771,4.454e-05,0.0,0 STARLINK-3191,1 49770U 21115AY  23281.35829817  .00004454  00000-0  29771-3 0  9992,2 49770  53.2146 144.6008 0001581  72.8012 287.3154 15.08847532103443,6917.857,95.437,540.816,538.629,0.0
49770.0,STARLINK-3191,PAYLOAD,2023-10-08 18:08:15,15.08844281,0.0001689,53.2151,142.8165,78.1423,281.9759,0.00019323,2.789e-05,0.0,0 STARLINK-3191,1 49770U 21115AY  23281.75573888  .00002789  00000-0  19323-3 0  9991,2 49770  53.2151 142.8165 0001689  78.1423 281.9759 15.08844281103491,6917.867,95.437,540.901,538.564,0.0
49770.0,STARLINK-3191,PAYLOAD,2023-10-08 21:19:01,15.08847551,0.0001489,53.2157,142.2183,92.0516,268.0646,0.00015684,2.21e-05,0.0,0 STARLINK-3191,1 49770U 21115AY  23281.88821503  .00002210  00000-0  15684-3 0  9990,2 49770  53.2157 142.2183 0001489  92.0516 268.0646 15.08847551103525,6917.857,95.437,540.752,538.692,0.0
49770.0,STARLINK-3191,PAYLOAD,2023-10-09 00:29:47,15.08851075,0.0001513,53.2163,141.6244,90.4863,269.6302,0.00022726,3.332e-05,0.0,0 STARLINK-3191,1 49770U 21115AY  23282.02069375  .00003332  00000-0  22726-3 0  9999,2 49770  53.2163 141.6244 0001513  90.4863 269.6302 15.08851075103542,6917.847,95.437,540.758,538.665,0.0
49770.0,STARLINK-3191,PAYLOAD,2023-10-09 19:34:26,15.08841637,0.0001384,53.215,138.0568,88.0774,272.0377,6.1923e-05,6.98e-06,0.0,0 STARLINK-3191,1 49770U 21115AY  23282.81557881  .00000698  00000-0  61923-4 0  9995,2 49770  53.2150 138.0568 0001384  88.0774 272.0377 15.08841637103652,6917.875,95.437,540.698,538.783,0.0
49770.0,STARLINK-3191,PAYLOAD,2023-10-10 21:00:35,15.0884739,0.0001307,53.2158,133.2989,89.7072,270.407,0.00012867,1.761e-05,0.0,0 STARLINK-3191,1 49770U 21115AY  23283.87541590  .00001761  00000-0  12867-3 0  9996,2 49770  53.2158 133.2989 0001307  89.7072 270.4070 15.08847390103810,6917.858,95.437,540.627,538.819,0.0
